TEN-KOH
1 43677U 18084G   25140.45718346  .00002208  00000-0  18044-3 0  9990
2 43677  98.0889 311.9155 0005679 348.8477  11.2619 15.00484068357229
STARS-AO
1 43679U 18084J   25140.48812782  .00005144  00000-0  31240-3 0  9999
2 43679  98.0754 326.3503 0003700  76.4506 283.7135 15.10980584358055
KAIDUN-1
1 41915U 17002C   25141.16084100  .00051579  00000-0  64970-3 0  9999
2 41915  97.1570 169.8476 0005876 106.8712 253.3189 15.59456826462951
CAS-4B (ZHUHAI-1 02)
1 42759U 17034B   25141.22198219  .00064813  00000-0  74573-3 0  9990
2 42759  43.0072  77.0471 0018837 160.7296 199.4284 15.60906658439570
CAS-4A (ZHUHAI-1 01)
1 42761U 17034D   25141.20591713  .00072098  00000-0  79254-3 0  9992
2 42761  43.0112  74.4951 0020178 164.8763 195.2709 15.62010455439598
EAGLESAT-1
1 43018U 17073F   25140.17214194  .00045928  00000-0  89154-3 0  9993
2 43018  97.5421  33.1263 0092114 165.8254 194.5612 15.42911879407356
LUOJIA-1 01
1 43485U 18048B   25141.20130620  .00001976  00000-0  23715-3 0  9996
2 43485  97.8428 220.5041 0008533 336.5002  23.5822 14.85123998375979
DIWATA-2B (PO-101)
1 43678U 18084H   25141.22136266  .00002218  00000-0  19200-3 0  9998
2 43678  98.1019 316.6088 0007596   0.0799   0.0422 14.98241609357481
ESHAIL-2
1 43700U 18090A   25141.07058709  .00000153  00000-0  00000+0 0  9999
2 43700   0.0129 307.4416 0002020 152.5689 190.1514  1.00269629 23981
K2SAT
1 43761U 18099D   25140.71399268  .00001748  00000-0  13018-3 0  9991
2 43761  97.4701 190.2583 0010331 240.4435 119.5762 15.04155879353062
AISTECHSAT-2
1 43768U 18099L   25140.65065501  .00004268  00000-0  26515-3 0  9997
2 43768  97.4835 192.3955 0004788 194.9068 165.2022 15.10186059352930
SNUSAT-2
1 43782U 18099AA  25140.12410557  .00006572  00000-0  36195-3 0  9995
2 43782  97.4606 195.3569 0011314 217.2421 142.8027 15.14301877353401
ITASAT-1
1 43786U 18099AE  25141.09938229  .00006189  00000-0  35664-3 0  9991
2 43786  97.4579 195.8799 0012750 272.7290  87.2481 15.12687154353510
IRVINE02
1 43789U 18099AH  25140.76298624  .00029092  00000-0  81743-3 0  9992
2 43789  97.4662 208.3931 0009876 200.7567 159.3277 15.36435561353969
EAGLET-1
1 43790U 18099AJ  25140.65670169  .00003223  00000-0  20825-3 0  9992
2 43790  97.4772 195.4683 0010512 255.0060 105.0006 15.08883127353066
ESEO
1 43792U 18099AL  25140.68989513  .00002247  00000-0  17329-3 0  9993
2 43792  97.4464 189.0264 0011976 230.2596 129.7575 15.02525037352839
CSIM-FD
1 43793U 18099AM  25141.15655133  .00158551  00000-0  14263-2 0  9998
2 43793  97.4823 217.6543 0007776 196.4515 163.6494 15.67692072354591
HIBER-2
1 43774U 18099S   25140.72819552  .00031689  00000-0  87644-3 0  9992
2 43774  97.4895 209.4268 0006615 189.7225 170.3892 15.36937911354133
MINXSS-2
1 43758U 18099A   25141.10973882  .00014688  00000-0  58806-3 0  9992
2 43758  97.5025 207.0902 0011417 216.3559 143.6904 15.25105053354008
FOX-1CLIFF (AO-95)
1 43770U 18099N   25140.13531444  .00007202  00000-0  36885-3 0  9999
2 43770  97.4923 198.4511 0008968 283.2313  76.7919 15.16866063353450
MOVE-II
1 43780U 18099Y   25140.73354447  .00172303  00000-0  15192-2 0  9994
2 43780  97.4657 214.9628 0006551 201.6137 158.4848 15.68156569354687
CORVUS-BC4
1 43767U 18099K   25141.10860860  .00003369  00000-0  22160-3 0  9991
2 43767  97.4600 190.4127 0007336 269.2899  90.7489 15.08209398353220
CZ-4B R/B
1 43656U 18081B   25140.64953790  .00000142  00000-0  60271-4 0  9994
2 43656  99.3993  21.9048 0204699 317.2184  41.3218 14.31640794343130
COSMOS 2504 [i]
1 40555U 15020D   25141.18669397  .00000231  00000-0  82933-4 0  9994
2 40555  82.5173 174.1937 0607863 259.5611  93.6526 13.61029600496860
MERIDIAN-4
1 37398U 11018A   25140.50260992 -.00000372  00000-0 -30205-2 0  9992
2 37398  62.1247 137.1245 7344874 260.6748  17.5357  2.00569283102889
MERIDIAN-6
1 38995U 12063A   25139.82945450  .00000344  00000-0  00000-0 0  9994
2 38995  64.7895  49.2951 7236647 231.9635  38.1540  2.00690374 91618
MERIDIAN-7
1 40296U 14069A   25140.37314821  .00000170  00000-0  00000-0 0  9990
2 40296  63.4873 256.0176 6839175 272.5646  17.3498  2.00610291 77357
METOP-C
1 43689U 18087A   25141.14677982  .00000111  00000-0  70608-4 0  9999
2 43689  98.7164 201.7225 0001039 158.3293 201.7928 14.21479379339135
FENGYUN-3B
1 37214U 10059A   25141.22691301  .00000075  00000-0  62457-4 0  9999
2 37214  99.0141 179.4223 0021536 214.5664 222.1850 14.14725326752049
FENGYUN-3C
1 39260U 13052A   25141.21104975  .00000121  00000-0  82390-4 0  9993
2 39260  98.4538 129.1859 0015910  73.4432 286.8489 14.15621598603177
EWS-G1 (GOES-13)
1 29155U 06018A   25139.73188700 -.00000195  00000-0  00000-0 0  9997
2 29155   3.5079  81.2280 0063045 265.8950 144.4263  0.98813681 39361
FENGYUN-2H
1 43491U 18050A   25140.79027487 -.00000119  00000-0  00000-0 0  9993
2 43491   2.0193  83.7136 0000539 102.3035  56.4460  1.00269309 25504
FENGYUN-2G
1 40367U 14090A   25140.79386998 -.00000289  00000-0  00000-0 0  9995
2 40367   4.6445  77.5807 0003070 125.9639  60.2093  1.00266845 38063
INMARSAT 4-F1
1 28628U 05009A   25140.68740519  .00000042  00000-0  00000-0 0  9998
2 28628   4.6632  42.1410 0003114  27.2547 234.7432  1.00271114 73739
INMARSAT 4-F2
1 28899U 05044A   25140.19677638 -.00000251  00000-0  00000-0 0  9997
2 28899   4.5876  43.3956 0002884  23.9695  25.0705  1.00271505 71585
INMARSAT 4-F3
1 33278U 08039A   25140.57101187 -.00000131  00000-0  00000-0 0  9991
2 33278   3.9691  29.7849 0002680  33.8689 282.3707  1.00271359 42604
INMARSAT 4A-F4 (ALPHASAT)
1 39215U 13038A   25141.07058709  .00000142  00000-0  00000+0 0  9990
2 39215   2.9394   4.5123 0001695  67.2949 217.4061  1.00269245 43335
ASTROCAST
1 43798U 18099AS  25140.74974405  .00014646  00000-0  53730-3 0  9992
2 43798  97.4845 208.1733 0008552 173.8176 186.3171 15.28035826354141
JY1SAT (JO-97)
1 43803U 18099AX  25141.10607583  .00011116  00000-0  51286-3 0  9993
2 43803  97.4672 200.3617 0007339 200.0004 160.0944 15.20383396353816
SUOMI-100
1 43804U 18099AY  25140.89183171  .00008855  00000-0  43787-3 0  9994
2 43804  97.4739 199.5009 0011941 208.6647 151.3932 15.18000501353716
GEO-KOMPSAT-2A
1 43823U 18100A   25140.94319557 -.00000335  00000-0  00000+0 0  9996
2 43823   0.0133  86.9308 0002067 356.8111 262.8975  1.00270315 23736
UWE-4
1 43880U 18111E   25140.73235374  .00012953  00000-0  51580-3 0  9993
2 43880  97.5908  53.3114 0009868 283.0781  76.9355 15.25333064350601
D-STAR ONE SPARROW
1 43881U 18111F   25141.19277463  .00020105  00000-0  68615-3 0  9995
2 43881  97.6106  57.9705 0005212 323.7910  36.2976 15.30355581348827
METEOR M2-2
1 44387U 19038A   25141.17787815  .00000119  00000-0  71181-4 0  9997
2 44387  98.8735 118.6694 0002361  76.9118 283.2324 14.24203193305491
MOMENTUS-X1
1 44408U 19038Y   25140.57824996  .00016415  00000-0  37118-3 0  9993
2 44408  97.7197 152.2231 0012604  13.1104 347.0468 15.43164611325623
MERIDIAN-8
1 44453U 19046A   25140.43549744  .00000272  00000-0  00000+0 0  9992
2 44453  62.8199  99.4108 6919591 273.8115  16.2652  2.00609095 42543
TAURUS-1
1 44530U 19059C   25141.20240601  .00005901  00000-0  10946-2 0  9995
2 44530  98.6048 279.6816 0010685 100.4684 259.7723 14.65608628301101
GAOFEN 12-01
1 44819U 19082A   25141.21363142  .00000429  00000-0  62888-4 0  9992
2 44819  97.8139 152.8514 0002541 165.8081 194.3203 14.80378498296092
DUCHIFAT-3
1 44854U 19089C   25141.18196417  .00042927  00000-0  88507-3 0  9997
2 44854  36.9428 118.3789 0002666 204.0269 156.0363 15.44925487299945
CAS-6 (TO-108)
1 44881U 19093C   25141.16164595  .00000833  00000-0  10248-3 0  9999
2 44881  97.7926 217.2171 0012444 298.1617  61.8340 14.85561457293199
ELEKTRO-L3
1 44903U 19095A   25140.78337271 -.00000088  00000-0  00000-0 0  9991
2 44903   0.0855  60.6696 0000962   5.6964 170.3491  1.00271376 19776
DOSAAF-85 (RS-44)
1 44909U 19096E   25140.77447728  .00000006  00000-0 -14748-4 0  9994
2 44909  82.5224 240.4346 0217001 342.1832  17.1742 12.79740554252159
MERIDIAN-9
1 45254U 20015A   25140.15996423 -.00000075  00000-0  00000+0 0  9991
2 45254  65.2447   1.9540 6946552 284.2131  12.8143  2.00608350 38427
ION-MK01
1 46274U 20061C   25140.73915153  .00023479  00000-0  41637-3 0  9997
2 46274  97.2461 208.3252 0000639 330.8928  29.2289 15.50245974261909
UPMSAT-2
1 46276U 20061E   25140.76717889  .00058338  00000-0  56730-3 0  9990
2 46276  97.2447 214.5218 0001610 165.1484 194.9824 15.66117611262361
DEKART
1 46493U 20068H   25140.74097726  .00009327  00000-0  35654-3 0  9993
2 46493  97.8570 120.7295 0010065 219.5157 140.5348 15.26801178255693
NORBY
1 46494U 20068J   25140.75349597  .00013371  00000-0  44391-3 0  9993
2 46494  97.8551 123.2032 0008967 208.1218 151.9539 15.31326440255856
SALSAT (TUBSAT 22)
1 46495U 20068K   25140.50604359  .00006275  00000-0  27404-3 0  9998
2 46495  97.8597 117.6134 0009955 225.2762 134.7663 15.22466148255474
NETSAT-4
1 46504U 20068U   25140.79390954  .00013537  00000-0  46975-3 0  9996
2 46504  97.8447 117.5142 0005007 273.2163  86.8503 15.29911773255521
NETSAT-3
1 46505U 20068V   25140.37451920  .00010311  00000-0  37509-3 0  9992
2 46505  97.8443 116.0609 0004911 291.7033  68.3682 15.28445302255425
NETSAT-1
1 46506U 20068W   25140.89031297  .00008269  00000-0  34632-3 0  9994
2 46506  97.8469 114.5723 0004927 310.2933  49.7872 15.23813737255360
NETSAT-2
1 46507U 20068X   25141.17186967  .00012725  00000-0  44717-3 0  9999
2 46507  97.8444 117.4120 0003801 315.6490  44.4444 15.29523183255528
ARKTIKA-M1
1 47719U 21016A   25139.21863086  .00000100  00000-0  00000-0 0  9993
2 47719  63.1472 111.3840 7095280 268.5987  16.6986  2.00600144 30889
SIMBA
1 47941U 21022K   25141.20866141  .00028918  00000-0  62727-3 0  9998
2 47941  97.4243  45.3200 0010961  36.4189 323.7803 15.44296494230209
UNISAT-7
1 47945U 21022P   25140.67802965  .00009762  00000-0  34898-3 0  9990
2 47945  97.4232  39.3582 0012856  43.6661 316.5594 15.28945425229670
